{
  "type": "FeatureCollection",
  "features": [
    {
      "type": "Feature",
      "properties": {
        "norad_id": 34010,
        "name": "COSMOS 2251 DEB",
        "group": "cosmos-2251-debris",
        "lat": 10.880639305264758,
        "lon": -79.28680615589526,
        "alt_km": 507.5437386318681,
        "timestamp": "2025-12-15T11:38:37.545484+00:00",
        "meta_object_name": "COSMOS 2251 DEB",
        "meta_object_id": "1993-036GV",
        "meta_epoch": "2025-12-14T19:47:19.472352",
        "meta_mean_motion": 15.19093521,
        "meta_eccentricity": 0.00047335,
        "meta_inclination": 73.998,
        "meta_ra_of_asc_node": 278.9364,
        "meta_arg_of_pericenter": 65.3699,
        "meta_mean_anomaly": 294.799,
        "meta_ephemeris_type": 0,
        "meta_classification_type": "U",
        "meta_norad_cat_id": 34010,
        "meta_element_set_no": 999,
        "meta_rev_at_epoch": 89317,
        "meta_bstar": 0.0026488359,
        "meta_mean_motion_dot": 0.00056007,
        "meta_mean_motion_ddot": 0,
        "tle_line1": "1 34010U 93036GV  25348.82453093  .00056007  00000+0  26488-2 0  9992",
        "tle_line2": "2 34010  73.9980 278.9364 0004733  65.3699 294.7990 15.19093521893174"
      },
      "geometry": {
        "type": "Point",
        "coordinates": [
          -79.28680615589526,
          10.880639305264758
        ]
      }
    },
    {
      "type": "Feature",
      "properties": {
        "norad_id": 34011,
        "name": "COSMOS 2251 DEB",
        "group": "cosmos-2251-debris",
        "lat": 69.52150166914049,
        "lon": 94.92021978183033,
        "alt_km": 730.9098919524558,
        "timestamp": "2025-12-15T11:38:37.545495+00:00",
        "meta_object_name": "COSMOS 2251 DEB",
        "meta_object_id": "1993-036GW",
        "meta_epoch": "2025-12-14T08:31:36.167808",
        "meta_mean_motion": 14.41780718,
        "meta_eccentricity": 0.00356469,
        "meta_inclination": 74.0148,
        "meta_ra_of_asc_node": 327.1515,
        "meta_arg_of_pericenter": 50.1637,
        "meta_mean_anomaly": 310.2646,
        "meta_ephemeris_type": 0,
        "meta_classification_type": "U",
        "meta_norad_cat_id": 34011,
        "meta_element_set_no": 999,
        "meta_rev_at_epoch": 87939,
        "meta_bstar": 0.00091854974,
        "meta_mean_motion_dot": 2.998e-05,
        "meta_mean_motion_ddot": 0,
        "tle_line1": "1 34011U 93036GW  25348.35527972  .00002998  00000+0  91855-3 0  9990",
        "tle_line2": "2 34011  74.0148 327.1515 0035646  50.1637 310.2646 14.41780718879394"
      },
      "geometry": {
        "type": "Point",
        "coordinates": [
          94.92021978183033,
          69.52150166914049
        ]
      }
    },
    {
      "type": "Feature",
      "properties": {
        "norad_id": 34014,
        "name": "COSMOS 2251 DEB",
        "group": "cosmos-2251-debris",
        "lat": -10.475356360366263,
        "lon": -87.66847535836854,
        "alt_km": 643.7765835580312,
        "timestamp": "2025-12-15T11:38:37.545504+00:00",
        "meta_object_name": "COSMOS 2251 DEB",
        "meta_object_id": "1993-036GZ",
        "meta_epoch": "2025-12-14T21:17:56.962176",
        "meta_mean_motion": 14.73170616,
        "meta_eccentricity": 0.00371496,
        "meta_inclination": 74.0169,
        "meta_ra_of_asc_node": 276.5348,
        "meta_arg_of_pericenter": 55.615,
        "meta_mean_anomaly": 5.4893,
        "meta_ephemeris_type": 0,
        "meta_classification_type": "U",
        "meta_norad_cat_id": 34014,
        "meta_element_set_no": 999,
        "meta_rev_at_epoch": 89335,
        "meta_bstar": 0.00068480192,
        "meta_mean_motion_dot": 4.434e-05,
        "meta_mean_motion_ddot": 0,
        "tle_line1": "1 34014U 93036GZ  25348.88746484  .00004434  00000+0  68480-3 0  9997",
        "tle_line2": "2 34014  74.0169 276.5348 0037149  55.6150   5.4893 14.73170616893355"
      },
      "geometry": {
        "type": "Point",
        "coordinates": [
          -87.66847535836854,
          -10.475356360366263
        ]
      }
    },
    {
      "type": "Feature",
      "properties": {
        "norad_id": 34015,
        "name": "COSMOS 2251 DEB",
        "group": "cosmos-2251-debris",
        "lat": -20.39719348008477,
        "lon": 148.06408854037971,
        "alt_km": 696.5690880100619,
        "timestamp": "2025-12-15T11:38:37.545527+00:00",
        "meta_object_name": "COSMOS 2251 DEB",
        "meta_object_id": "1993-036HA",
        "meta_epoch": "2025-12-14T21:30:35.091936",
        "meta_mean_motion": 14.6028342,
        "meta_eccentricity": 0.00209973,
        "meta_inclination": 74.0233,
        "meta_ra_of_asc_node": 155.3041,
        "meta_arg_of_pericenter": 252.0926,
        "meta_mean_anomaly": 231.8385,
        "meta_ephemeris_type": 0,
        "meta_classification_type": "U",
        "meta_norad_cat_id": 34015,
        "meta_element_set_no": 999,
        "meta_rev_at_epoch": 88562,
        "meta_bstar": 0.0010351669,
        "meta_mean_motion_dot": 4.987e-05,
        "meta_mean_motion_ddot": 0,
        "tle_line1": "1 34015U 93036HA  25348.89623949  .00004987  00000+0  10352-2 0  9996",
        "tle_line2": "2 34015  74.0233 155.3041 0020997 252.0926 231.8385 14.60283420885625"
      },
      "geometry": {
        "type": "Point",
        "coordinates": [
          148.06408854037971,
          -20.39719348008477
        ]
      }
    },
    {
      "type": "Feature",
      "properties": {
        "norad_id": 34018,
        "name": "COSMOS 2251 DEB",
        "group": "cosmos-2251-debris",
        "lat": 52.881189410204904,
        "lon": 109.91182237295982,
        "alt_km": 873.8011203273663,
        "timestamp": "2025-12-15T11:38:37.545538+00:00",
        "meta_object_name": "COSMOS 2251 DEB",
        "meta_object_id": "1993-036HD",
        "meta_epoch": "2025-12-14T23:45:27.631296",
        "meta_mean_motion": 13.81074429,
        "meta_eccentricity": 0.02635925,
        "meta_inclination": 73.8779,
        "meta_ra_of_asc_node": 88.2826,
        "meta_arg_of_pericenter": 123.7405,
        "meta_mean_anomaly": 353.7687,
        "meta_ephemeris_type": 0,
        "meta_classification_type": "U",
        "meta_norad_cat_id": 34018,
        "meta_element_set_no": 999,
        "meta_rev_at_epoch": 84688,
        "meta_bstar": 0.0004439905,
        "meta_mean_motion_dot": 5.89e-06,
        "meta_mean_motion_ddot": 0,
        "tle_line1": "1 34018U 93036HD  25348.98990314  .00000589  00000+0  44399-3 0  9995",
        "tle_line2": "2 34018  73.8779  88.2826 0263592 123.7405 353.7687 13.81074429846884"
      },
      "geometry": {
        "type": "Point",
        "coordinates": [
          109.91182237295982,
          52.881189410204904
        ]
      }
    },
    {
      "type": "Feature",
      "properties": {
        "norad_id": 34019,
        "name": "COSMOS 2251 DEB",
        "group": "cosmos-2251-debris",
        "lat": -12.867731969053983,
        "lon": 41.92239074357989,
        "alt_km": 805.0277282620891,
        "timestamp": "2025-12-15T11:38:37.545548+00:00",
        "meta_object_name": "COSMOS 2251 DEB",
        "meta_object_id": "1993-036HE",
        "meta_epoch": "2025-12-14T21:10:34.156128",
        "meta_mean_motion": 14.33949314,
        "meta_eccentricity": 0.00626338,
        "meta_inclination": 73.9553,
        "meta_ra_of_asc_node": 46.7997,
        "meta_arg_of_pericenter": 227.7307,
        "meta_mean_anomaly": 247.7293,
        "meta_ephemeris_type": 0,
        "meta_classification_type": "U",
        "meta_norad_cat_id": 34019,
        "meta_element_set_no": 999,
        "meta_rev_at_epoch": 87551,
        "meta_bstar": 0.00068048963,
        "meta_mean_motion_dot": 1.914e-05,
        "meta_mean_motion_ddot": 0,
        "tle_line1": "1 34019U 93036HE  25348.88233977  .00001914  00000+0  68049-3 0  9991",
        "tle_line2": "2 34019  73.9553  46.7997 0062633 227.7307 247.7293 14.33949314875512"
      },
      "geometry": {
        "type": "Point",
        "coordinates": [
          41.92239074357989,
          -12.867731969053983
        ]
      }
    },
    {
      "type": "Feature",
      "properties": {
        "norad_id": 34021,
        "name": "COSMOS 2251 DEB",
        "group": "cosmos-2251-debris",
        "lat": -59.15773412259689,
        "lon": -26.680714639287284,
        "alt_km": 719.0798624193922,
        "timestamp": "2025-12-15T11:38:37.545558+00:00",
        "meta_object_name": "COSMOS 2251 DEB",
        "meta_object_id": "1993-036HG",
        "meta_epoch": "2025-12-14T20:23:13.797600",
        "meta_mean_motion": 14.49956604,
        "meta_eccentricity": 0.00209525,
        "meta_inclination": 74.036,
        "meta_ra_of_asc_node": 125.8669,
        "meta_arg_of_pericenter": 269.753,
        "meta_mean_anomaly": 256.692,
        "meta_ephemeris_type": 0,
        "meta_classification_type": "U",
        "meta_norad_cat_id": 34021,
        "meta_element_set_no": 999,
        "meta_rev_at_epoch": 88660,
        "meta_bstar": 0.00044523586,
        "meta_mean_motion_dot": 1.7e-05,
        "meta_mean_motion_ddot": 0,
        "tle_line1": "1 34021U 93036HG  25348.84946525  .00001700  00000+0  44524-3 0  9995",
        "tle_line2": "2 34021  74.0360 125.8669 0020952 269.7530 256.6920 14.49956604886605"
      },
      "geometry": {
        "type": "Point",
        "coordinates": [
          -26.680714639287284,
          -59.15773412259689
        ]
      }
    }
  ]
}